{
    "links": {
        "self": "http://www.neowsapp.com/rest/v1/neo/3603630?api_key=iIulBulltgU6a56xZRHN4H3l9WmuAYTsLGpBGhQ2"
    },
    "id": "3603630",
    "neo_reference_id": "3603630",
    "name": "(2012 JQ4)",
    "designation": "2012 JQ4",
    "nasa_jpl_url": "http://ssd.jpl.nasa.gov/sbdb.cgi?sstr=3603630",
    "absolute_magnitude_h": 21.9,
    "estimated_diameter": {
        "kilometers": {
            "estimated_diameter_min": 0.1108038821,
            "estimated_diameter_max": 0.2477650126
        },
        "meters": {
            "estimated_diameter_min": 110.8038821264,
            "estimated_diameter_max": 247.7650126055
        },
        "miles": {
            "estimated_diameter_min": 0.068850319,
            "estimated_diameter_max": 0.1539539936
        },
        "feet": {
            "estimated_diameter_min": 363.5298086356,
            "estimated_diameter_max": 812.8773639568
        }
    },
    "is_potentially_hazardous_asteroid": false,
    "close_approach_data": [
        {
            "close_approach_date": "2012-05-08",
            "close_approach_date_full": "2012-May-08 13:54",
            "epoch_date_close_approach": 1336485240000,
            "relative_velocity": {
                "kilometers_per_second": "15.3059964319",
                "kilometers_per_hour": "55101.5871549606",
                "miles_per_hour": "34237.983418592"
            },
            "miss_distance": {
                "astronomical": "0.0523345924",
                "lunar": "20.3581564436",
                "kilometers": "7829143.550358188",
                "miles": "4864804.2182234744"
            },
            "orbiting_body": "Earth"
        }
    ],
    "orbital_data": {
        "orbit_id": "11",
        "orbit_determination_date": "2017-04-06 08:49:51",
        "first_observation_date": "2012-05-12",
        "last_observation_date": "2012-05-31",
        "data_arc_in_days": 19,
        "observations_used": 114,
        "orbit_uncertainty": "8",
        "minimum_orbit_intersection": ".0520582",
        "jupiter_tisserand_invariant": "3.157",
        "epoch_osculation": "2456063.5",
        "eccentricity": ".6082163921772066",
        "semi_major_axis": "2.436452852192173",
        "inclination": "19.87178109405909",
        "ascending_node_longitude": "53.54177309852047",
        "orbital_period": "1389.106183404766",
        "perihelion_distance": ".9545622887219847",
        "perihelion_argument": "134.0684046474634",
        "aphelion_distance": "3.918343415662361",
        "perihelion_time": "2456023.807245832417",
        "mean_anomaly": "10.28675249670684",
        "mean_motion": ".2591594539717783",
        "equinox": "J2000",
        "orbit_class": {
            "orbit_class_type": "APO",
            "orbit_class_description": "Near-Earth asteroid orbits which cross the Earth’s orbit similar to that of 1862 Apollo",
            "orbit_class_range": "a (semi-major axis) > 1.0 AU; q (perihelion) < 1.017 AU"
        }
    },
    "is_sentry_object": false
}